{
    "links": {
        "self": "http://www.neowsapp.com/rest/v1/neo/3799307?api_key=iIulBulltgU6a56xZRHN4H3l9WmuAYTsLGpBGhQ2"
    },
    "id": "3799307",
    "neo_reference_id": "3799307",
    "name": "(2018 CA3)",
    "designation": "2018 CA3",
    "nasa_jpl_url": "http://ssd.jpl.nasa.gov/sbdb.cgi?sstr=3799307",
    "absolute_magnitude_h": 23.7,
    "estimated_diameter": {
        "kilometers": {
            "estimated_diameter_min": 0.0483676488,
            "estimated_diameter_max": 0.1081533507
        },
        "meters": {
            "estimated_diameter_min": 48.3676488219,
            "estimated_diameter_max": 108.1533506775
        },
        "miles": {
            "estimated_diameter_min": 0.0300542543,
            "estimated_diameter_max": 0.0672033557
        },
        "feet": {
            "estimated_diameter_min": 158.6865169607,
            "estimated_diameter_max": 354.8338390368
        }
    },
    "is_potentially_hazardous_asteroid": false,
    "close_approach_data": [
        {
            "close_approach_date": "1907-06-26",
            "close_approach_date_full": "1907-Jun-26 12:31",
            "epoch_date_close_approach": -1972898940000,
            "relative_velocity": {
                "kilometers_per_second": "16.4753506315",
                "kilometers_per_hour": "59311.2622734198",
                "miles_per_hour": "36853.7118276147"
            },
            "miss_distance": {
                "astronomical": "0.4862639398",
                "lunar": "189.1566725822",
                "kilometers": "72744049.651888226",
                "miles": "45201056.4528444788"
            },
            "orbiting_body": "Earth"
        },
        {
            "close_approach_date": "2018-02-01",
            "close_approach_date_full": "2018-Feb-01 11:28",
            "epoch_date_close_approach": 1517484480000,
            "relative_velocity": {
                "kilometers_per_second": "9.0943248788",
                "kilometers_per_hour": "32739.5695636442",
                "miles_per_hour": "20343.0953213655"
            },
            "miss_distance": {
                "astronomical": "0.0974586912",
                "lunar": "37.9114308768",
                "kilometers": "14579612.616507744",
                "miles": "9059351.1922011072"
            },
            "orbiting_body": "Earth"
        },
        {
            "close_approach_date": "2018-07-15",
            "close_approach_date_full": "2018-Jul-15 21:45",
            "epoch_date_close_approach": 1531691100000,
            "relative_velocity": {
                "kilometers_per_second": "7.7323215622",
                "kilometers_per_hour": "27836.3576238119",
                "miles_per_hour": "17296.430102418"
            },
            "miss_distance": {
                "astronomical": "0.1660815803",
                "lunar": "64.6057347367",
                "kilometers": "24845450.659113961",
                "miles": "15438247.1585402218"
            },
            "orbiting_body": "Earth"
        }
    ],
    "orbital_data": {
        "orbit_id": "1",
        "orbit_determination_date": "2018-02-12 08:12:04",
        "first_observation_date": "2018-02-09",
        "last_observation_date": "2018-02-11",
        "data_arc_in_days": 2,
        "observations_used": 26,
        "orbit_uncertainty": "9",
        "minimum_orbit_intersection": ".0632568",
        "jupiter_tisserand_invariant": "5.460",
        "epoch_osculation": "2458159.5",
        "eccentricity": ".1267590293365076",
        "semi_major_axis": "1.141143187874212",
        "inclination": "14.34691676972763",
        "ascending_node_longitude": "126.7339576513078",
        "orbital_period": "445.2548307016011",
        "perihelion_distance": ".996492985045309",
        "perihelion_argument": "58.84380240202393",
        "aphelion_distance": "1.285793390703115",
        "perihelion_time": "2458198.791515178613",
        "mean_anomaly": "328.2317978627833",
        "mean_motion": ".808525759131546",
        "equinox": "J2000",
        "orbit_class": {
            "orbit_class_type": "APO",
            "orbit_class_description": "Near-Earth asteroid orbits which cross the Earth’s orbit similar to that of 1862 Apollo",
            "orbit_class_range": "a (semi-major axis) > 1.0 AU; q (perihelion) < 1.017 AU"
        }
    },
    "is_sentry_object": false
}